[
  {
    "OBJECT_NAME": "STARLINK-32001",
    "OBJECT_ID": "24117V",
    "EPOCH": "2025-11-11T03:58:49.198944",
    "MEAN_MOTION": 15.30209409,
    "ECCENTRICITY": 0.0001466,
    "INCLINATION": 53.1597,
    "RA_OF_ASC_NODE": 227.3898,
    "ARG_OF_PERICENTER": 78.9688,
    "MEAN_ANOMALY": 281.1477,
    "EPHEMERIS_TYPE": 0,
    "CLASSIFICATION_TYPE": "U",
    "NORAD_CAT_ID": 60110,
    "ELEMENT_SET_NO": 999,
    "REV_AT_EPOCH": 7874,
    "BSTAR": 0.00025957000000000004,
    "MEAN_MOTION_DOT": 7.338e-05,
    "MEAN_MOTION_DDOT": 0.0,
    "TLE_LINE1": "1 60110U 24117V   25315.16584721  .00007338  00000+0  25957-3 0  9994",
    "TLE_LINE2": "2 60110  53.1597 227.3898 0001466  78.9688 281.1477 15.30209409 78741",
    "COMMENT": "Grouped by shell and plane from TLE"
  },
  {
    "OBJECT_NAME": "STARLINK-32015",
    "OBJECT_ID": "24117W",
    "EPOCH": "2025-11-11T03:49:41.644128",
    "MEAN_MOTION": 15.30198077,
    "ECCENTRICITY": 0.0001414,
    "INCLINATION": 53.161,
    "RA_OF_ASC_NODE": 227.3489,
    "ARG_OF_PERICENTER": 83.9865,
    "MEAN_ANOMALY": 276.1297,
    "EPHEMERIS_TYPE": 0,
    "CLASSIFICATION_TYPE": "U",
    "NORAD_CAT_ID": 60111,
    "ELEMENT_SET_NO": 999,
    "REV_AT_EPOCH": 7874,
    "BSTAR": 5.7862e-05,
    "MEAN_MOTION_DOT": 1.355e-05,
    "MEAN_MOTION_DDOT": 0.0,
    "TLE_LINE1": "1 60111U 24117W   25315.15950977  .00001355  00000+0  57862-4 0  9998",
    "TLE_LINE2": "2 60111  53.1610 227.3489 0001414  83.9865 276.1297 15.30198077 78742",
    "COMMENT": "Grouped by shell and plane from TLE"
  },
  {
    "OBJECT_NAME": "STARLINK-32024",
    "OBJECT_ID": "24117X",
    "EPOCH": "2025-11-11T04:07:56.698464",
    "MEAN_MOTION": 15.3018896,
    "ECCENTRICITY": 0.0001464,
    "INCLINATION": 53.1609,
    "RA_OF_ASC_NODE": 227.4287,
    "ARG_OF_PERICENTER": 79.204,
    "MEAN_ANOMALY": 280.9126,
    "EPHEMERIS_TYPE": 0,
    "CLASSIFICATION_TYPE": "U",
    "NORAD_CAT_ID": 60112,
    "ELEMENT_SET_NO": 999,
    "REV_AT_EPOCH": 7874,
    "BSTAR": 0.0,
    "MEAN_MOTION_DOT": -1.545e-05,
    "MEAN_MOTION_DDOT": 0.0,
    "TLE_LINE1": "1 60112U 24117X   25315.17218401 -.00001545  00000+0 -40070-4 0  9996",
    "TLE_LINE2": "2 60112  53.1609 227.4287 0001464  79.2040 280.9126 15.30188960 78740",
    "COMMENT": "Grouped by shell and plane from TLE"
  },
  {
    "OBJECT_NAME": "STARLINK-32567",
    "OBJECT_ID": "24207U",
    "EPOCH": "2025-11-11T02:18:18.998208",
    "MEAN_MOTION": 15.2763568,
    "ECCENTRICITY": 0.0001688,
    "INCLINATION": 43.0029,
    "RA_OF_ASC_NODE": 228.1173,
    "ARG_OF_PERICENTER": 252.2712,
    "MEAN_ANOMALY": 107.7956,
    "EPHEMERIS_TYPE": 0,
    "CLASSIFICATION_TYPE": "U",
    "NORAD_CAT_ID": 61930,
    "ELEMENT_SET_NO": 999,
    "REV_AT_EPOCH": 5721,
    "BSTAR": 0.0013482,
    "MEAN_MOTION_DOT": 0.00037088,
    "MEAN_MOTION_DDOT": 0.0,
    "TLE_LINE1": "1 61930U 24207U   25315.09605322  .00037088  00000+0  13482-2 0  9992",
    "TLE_LINE2": "2 61930  43.0029 228.1173 0001688 252.2712 107.7956 15.27635680 57210",
    "COMMENT": "Grouped by shell and plane from TLE"
  },
  {
    "OBJECT_NAME": "STARLINK-32688",
    "OBJECT_ID": "24229B",
    "EPOCH": "2025-11-11T03:55:34.929408",
    "MEAN_MOTION": 15.27584032,
    "ECCENTRICITY": 3.73e-05,
    "INCLINATION": 42.9919,
    "RA_OF_ASC_NODE": 220.151,
    "ARG_OF_PERICENTER": 273.9744,
    "MEAN_ANOMALY": 86.1065,
    "EPHEMERIS_TYPE": 0,
    "CLASSIFICATION_TYPE": "U",
    "NORAD_CAT_ID": 62193,
    "ELEMENT_SET_NO": 999,
    "REV_AT_EPOCH": 5243,
    "BSTAR": 0.0012739000000000001,
    "MEAN_MOTION_DOT": 0.00034964,
    "MEAN_MOTION_DDOT": 0.0,
    "TLE_LINE1": "1 62193U 24229B   25315.16359872  .00034964  00000+0  12739-2 0  9996",
    "TLE_LINE2": "2 62193  42.9919 220.1510 0000373 273.9744  86.1065 15.27584032 52434",
    "COMMENT": "Grouped by shell and plane from TLE"
  },
  {
    "OBJECT_NAME": "STARLINK-32672",
    "OBJECT_ID": "24229D",
    "EPOCH": "2025-11-11T03:38:53.804832",
    "MEAN_MOTION": 15.27614841,
    "ECCENTRICITY": 0.0001401,
    "INCLINATION": 42.9985,
    "RA_OF_ASC_NODE": 220.0631,
    "ARG_OF_PERICENTER": 262.3422,
    "MEAN_ANOMALY": 97.727,
    "EPHEMERIS_TYPE": 0,
    "CLASSIFICATION_TYPE": "U",
    "NORAD_CAT_ID": 62195,
    "ELEMENT_SET_NO": 999,
    "REV_AT_EPOCH": 5243,
    "BSTAR": 0.0007543,
    "MEAN_MOTION_DOT": 0.00020575,
    "MEAN_MOTION_DDOT": 0.0,
    "TLE_LINE1": "1 62195U 24229D   25315.15201163  .00020575  00000+0  75430-3 0  9997",
    "TLE_LINE2": "2 62195  42.9985 220.0631 0001401 262.3422  97.7270 15.27614841 52438",
    "COMMENT": "Grouped by shell and plane from TLE"
  },
  {
    "OBJECT_NAME": "STARLINK-32663",
    "OBJECT_ID": "24229F",
    "EPOCH": "2025-11-11T02:52:50.808000",
    "MEAN_MOTION": 15.27654637,
    "ECCENTRICITY": 0.0001658,
    "INCLINATION": 43.0024,
    "RA_OF_ASC_NODE": 220.6802,
    "ARG_OF_PERICENTER": 262.9894,
    "MEAN_ANOMALY": 97.0769,
    "EPHEMERIS_TYPE": 0,
    "CLASSIFICATION_TYPE": "U",
    "NORAD_CAT_ID": 62197,
    "ELEMENT_SET_NO": 999,
    "REV_AT_EPOCH": 5242,
    "BSTAR": 0.0017543,
    "MEAN_MOTION_DOT": 0.0004844,
    "MEAN_MOTION_DDOT": 0.0,
    "TLE_LINE1": "1 62197U 24229F   25315.12003250  .00048440  00000+0  17543-2 0  9994",
    "TLE_LINE2": "2 62197  43.0024 220.6802 0001658 262.9894  97.0769 15.27654637 52427",
    "COMMENT": "Grouped by shell and plane from TLE"
  },
  {
    "OBJECT_NAME": "STARLINK-32640",
    "OBJECT_ID": "24229G",
    "EPOCH": "2025-11-11T01:53:37.913856",
    "MEAN_MOTION": 15.27625465,
    "ECCENTRICITY": 0.0002453,
    "INCLINATION": 43.0002,
    "RA_OF_ASC_NODE": 220.376,
    "ARG_OF_PERICENTER": 243.5175,
    "MEAN_ANOMALY": 116.5425,
    "EPHEMERIS_TYPE": 0,
    "CLASSIFICATION_TYPE": "U",
    "NORAD_CAT_ID": 62198,
    "ELEMENT_SET_NO": 999,
    "REV_AT_EPOCH": 5242,
    "BSTAR": 0.0011589,
    "MEAN_MOTION_DOT": 0.00031812,
    "MEAN_MOTION_DDOT": 0.0,
    "TLE_LINE1": "1 62198U 24229G   25315.07891104  .00031812  00000+0  11589-2 0  9991",
    "TLE_LINE2": "2 62198  43.0002 220.3760 0002453 243.5175 116.5425 15.27625465 52428",
    "COMMENT": "Grouped by shell and plane from TLE"
  },
  {
    "OBJECT_NAME": "STARLINK-32647",
    "OBJECT_ID": "24229J",
    "EPOCH": "2025-11-11T02:25:05.607840",
    "MEAN_MOTION": 15.27621468,
    "ECCENTRICITY": 0.0001096,
    "INCLINATION": 42.999,
    "RA_OF_ASC_NODE": 220.534,
    "ARG_OF_PERICENTER": 285.4102,
    "MEAN_ANOMALY": 74.6628,
    "EPHEMERIS_TYPE": 0,
    "CLASSIFICATION_TYPE": "U",
    "NORAD_CAT_ID": 62200,
    "ELEMENT_SET_NO": 999,
    "REV_AT_EPOCH": 5242,
    "BSTAR": 0.001212,
    "MEAN_MOTION_DOT": 0.00033282,
    "MEAN_MOTION_DDOT": 0.0,
    "TLE_LINE1": "1 62200U 24229J   25315.10075935  .00033282  00000+0  12120-2 0  9990",
    "TLE_LINE2": "2 62200  42.9990 220.5340 0001096 285.4102  74.6628 15.27621468 52427",
    "COMMENT": "Grouped by shell and plane from TLE"
  },
  {
    "OBJECT_NAME": "STARLINK-32655",
    "OBJECT_ID": "24229L",
    "EPOCH": "2025-11-11T02:41:44.721024",
    "MEAN_MOTION": 15.27628835,
    "ECCENTRICITY": 0.0001296,
    "INCLINATION": 42.9998,
    "RA_OF_ASC_NODE": 220.6213,
    "ARG_OF_PERICENTER": 260.4726,
    "MEAN_ANOMALY": 99.5979,
    "EPHEMERIS_TYPE": 0,
    "CLASSIFICATION_TYPE": "U",
    "NORAD_CAT_ID": 62202,
    "ELEMENT_SET_NO": 999,
    "REV_AT_EPOCH": 5242,
    "BSTAR": 0.0012688,
    "MEAN_MOTION_DOT": 0.00034871,
    "MEAN_MOTION_DDOT": 0.0,
    "TLE_LINE1": "1 62202U 24229L   25315.11232316  .00034871  00000+0  12688-2 0  9995",
    "TLE_LINE2": "2 62202  42.9998 220.6213 0001296 260.4726  99.5979 15.27628835 52424",
    "COMMENT": "Grouped by shell and plane from TLE"
  },
  {
    "OBJECT_NAME": "STARLINK-32665",
    "OBJECT_ID": "24229M",
    "EPOCH": "2025-11-11T03:49:59.597184",
    "MEAN_MOTION": 15.27620171,
    "ECCENTRICITY": 0.0001343,
    "INCLINATION": 42.9966,
    "RA_OF_ASC_NODE": 220.1186,
    "ARG_OF_PERICENTER": 281.3161,
    "MEAN_ANOMALY": 78.7539,
    "EPHEMERIS_TYPE": 0,
    "CLASSIFICATION_TYPE": "U",
    "NORAD_CAT_ID": 62203,
    "ELEMENT_SET_NO": 999,
    "REV_AT_EPOCH": 5243,
    "BSTAR": 0.0020199000000000003,
    "MEAN_MOTION_DOT": 0.00055811,
    "MEAN_MOTION_DDOT": 0.0,
    "TLE_LINE1": "1 62203U 24229M   25315.15971756  .00055811  00000+0  20199-2 0  9991",
    "TLE_LINE2": "2 62203  42.9966 220.1186 0001343 281.3161  78.7539 15.27620171 52439",
    "COMMENT": "Grouped by shell and plane from TLE"
  },
  {
    "OBJECT_NAME": "STARLINK-32664",
    "OBJECT_ID": "24229N",
    "EPOCH": "2025-11-11T04:04:47.726112",
    "MEAN_MOTION": 15.27648718,
    "ECCENTRICITY": 0.0001194,
    "INCLINATION": 42.9996,
    "RA_OF_ASC_NODE": 220.1924,
    "ARG_OF_PERICENTER": 257.5936,
    "MEAN_ANOMALY": 102.4783,
    "EPHEMERIS_TYPE": 0,
    "CLASSIFICATION_TYPE": "U",
    "NORAD_CAT_ID": 62204,
    "ELEMENT_SET_NO": 999,
    "REV_AT_EPOCH": 5243,
    "BSTAR": 0.0017453,
    "MEAN_MOTION_DOT": 0.00048181,
    "MEAN_MOTION_DDOT": 0.0,
    "TLE_LINE1": "1 62204U 24229N   25315.16999683  .00048181  00000+0  17453-2 0  9993",
    "TLE_LINE2": "2 62204  42.9996 220.1924 0001194 257.5936 102.4783 15.27648718 52435",
    "COMMENT": "Grouped by shell and plane from TLE"
  },
  {
    "OBJECT_NAME": "STARLINK-32448",
    "OBJECT_ID": "24229Q",
    "EPOCH": "2025-11-11T01:38:50.247168",
    "MEAN_MOTION": 15.27617942,
    "ECCENTRICITY": 0.0001346,
    "INCLINATION": 43.0019,
    "RA_OF_ASC_NODE": 220.3002,
    "ARG_OF_PERICENTER": 263.5288,
    "MEAN_ANOMALY": 96.541,
    "EPHEMERIS_TYPE": 0,
    "CLASSIFICATION_TYPE": "U",
    "NORAD_CAT_ID": 62206,
    "ELEMENT_SET_NO": 999,
    "REV_AT_EPOCH": 5242,
    "BSTAR": 0.0010512000000000002,
    "MEAN_MOTION_DOT": 0.00028812,
    "MEAN_MOTION_DDOT": 0.0,
    "TLE_LINE1": "1 62206U 24229Q   25315.06863712  .00028812  00000+0  10512-2 0  9995",
    "TLE_LINE2": "2 62206  43.0019 220.3002 0001346 263.5288  96.5410 15.27617942 52424",
    "COMMENT": "Grouped by shell and plane from TLE"
  }
]